{"type":"FeatureCollection","features":[{"type":"Feature","properties":{"aquifer_group":"Alluvium","aquifer_detail":"Coastal Alluvium (Sand/Silt/Clay)","aquifer_system":"Multiple","hydraulic_condition":"Semi-confined to Confined","recharge_score":3.0},"geometry":{"type":"Polygon","coordinates":[[[72.84508,23.708605],[72.848238,23.702885],[72.849277,23.697884],[72.85111,23.693936],[72.855982,23.692752],[72.865998,23.69262],[72.87786,23.692751],[72.881685,23.693672],[72.8863,23.69433],[72.889862,23.695383],[72.891444,23.695383],[72.895117,23.693824],[72.895851,23.690797],[72.896733,23.688872],[72.898354,23.686134],[72.900275,23.684357],[72.902422,23.683691],[72.903905,23.683691],[72.906132,23.684579],[72.907249,23.685985],[72.908289,23.686577],[72.909773,23.686799],[72.911312,23.686565],[72.911822,23.686061],[72.911861,23.685229],[72.911816,23.684271],[72.911435,23.682814],[72.910237,23.680906],[72.906396,23.675774],[72.904465,23.672225],[72.904259,23.670281],[72.904757,23.669698],[72.906633,23.669739],[72.911059,23.671363],[72.912442,23.671563],[72.913891,23.671299],[72.915071,23.669983],[72.915322,23.66643],[72.914121,23.662614],[72.913193,23.660903],[72.912659,23.659192],[72.912188,23.658244],[72.9121,23.657036],[72.912433,23.656786],[72.912849,23.656703],[72.914058,23.656661],[72.920565,23.659455],[72.92386,23.659718],[72.929658,23.659718],[72.931765,23.659586],[72.934136,23.659323],[72.936239,23.65827],[72.941102,23.655112],[72.947401,23.649058],[72.956836,23.63695],[72.959704,23.629843],[72.962983,23.626553],[72.965348,23.625105],[72.966661,23.624053],[72.967446,23.622868],[72.967704,23.621684],[72.967545,23.615104],[72.967799,23.612998],[72.968924,23.609161],[72.890117,23.607722],[72.889646,23.608195],[72.884768,23.611452],[72.881003,23.615154],[72.878496,23.618855],[72.877024,23.621594],[72.876513,23.623667],[72.876522,23.626405],[72.87702,23.642024],[72.87755,23.645355],[72.878521,23.64765],[72.879935,23.649575],[72.884703,23.656829],[72.885303,23.658679],[72.885234,23.660234],[72.884058,23.663047],[72.881101,23.665268],[72.878443,23.668303],[72.877632,23.669561],[72.876524,23.670524],[72.874228,23.670894],[72.872523,23.670894],[72.871707,23.670598],[72.871111,23.669858],[72.871253,23.667933],[72.871546,23.666823],[72.872945,23.664158],[72.87368,23.662381],[72.874191,23.66016],[72.874179,23.656607],[72.873721,23.65261],[72.87401,23.650463],[72.874304,23.649723],[72.873708,23.648761],[72.872,23.64765],[72.869403,23.646762],[72.865993,23.646392],[72.861695,23.64617],[72.859471,23.645874],[72.858136,23.64543],[72.855387,23.643432],[72.84825,23.635734],[72.846686,23.633291],[72.846676,23.62996],[72.848815,23.627073],[72.84948,23.626407],[72.849552,23.625889],[72.849329,23.62537],[72.841028,23.624409],[72.836061,23.62352],[72.833097,23.623299],[72.831245,23.623299],[72.829469,23.623965],[72.826421,23.626713],[72.825851,23.628583],[72.823753,23.631917],[72.821478,23.634549],[72.819726,23.636303],[72.819204,23.637707],[72.819033,23.639637],[72.820269,23.641567],[72.82203,23.643497],[72.830308,23.650866],[72.833309,23.655779],[72.834728,23.660341],[72.834921,23.666306],[72.832677,23.679642],[72.832344,23.685783],[72.829373,23.691047],[72.823422,23.699118],[72.818353,23.708593],[72.8166,23.710172],[72.813805,23.716138],[72.812762,23.720349],[72.809965,23.725788],[72.805585,23.730877],[72.802786,23.735965],[72.801744,23.740527],[72.801801,23.743588],[72.802764,23.745714],[72.803662,23.74425],[72.805372,23.742671],[72.806556,23.741618],[72.809056,23.740039],[72.815509,23.737144],[72.821173,23.735433],[72.825921,23.735828],[72.827242,23.736881],[72.82843,23.737407],[72.831074,23.739512],[72.832789,23.739907],[72.836349,23.739907],[72.838587,23.738854],[72.840034,23.73767],[72.842266,23.734775],[72.842921,23.733459],[72.843182,23.732406],[72.842518,23.730959],[72.839352,23.730301],[72.834208,23.729643],[72.832228,23.728722],[72.831301,23.727406],[72.831033,23.725958],[72.830102,23.723195],[72.830349,23.717668],[72.831266,23.715694],[72.832711,23.714114],[72.837841,23.710298],[72.841132,23.709114],[72.84508,23.708605]]]}},{"type":"Feature","properties":{"aquifer_group":"Limestone","aquifer_detail":"Limestone / Dolomite","aquifer_system":"Multiple","hydraulic_condition":"Unconfined","recharge_score":2.0},"geometry":{"type":"Polygon","coordinates":[[[72.84508,23.708605],[72.841132,23.709114],[72.837841,23.710298],[72.832711,23.714114],[72.831266,23.715694],[72.830349,23.717668],[72.830102,23.723195],[72.831033,23.725958],[72.831301,23.727406],[72.832228,23.728722],[72.834208,23.729643],[72.839352,23.730301],[72.842518,23.730959],[72.843182,23.732406],[72.842921,23.733459],[72.842266,23.734775],[72.840034,23.73767],[72.838587,23.738854],[72.836349,23.739907],[72.832789,23.739907],[72.831074,23.739512],[72.82843,23.737407],[72.827242,23.736881],[72.825921,23.735828],[72.821173,23.735433],[72.815509,23.737144],[72.809056,23.740039],[72.806556,23.741618],[72.803662,23.74425],[72.802612,23.745961],[72.802622,23.749646],[72.803554,23.753067],[72.808711,23.758068],[72.811616,23.759647],[72.817029,23.761752],[72.819671,23.763068],[72.82152,23.764253],[72.821919,23.765305],[72.821394,23.766227],[72.82021,23.767016],[72.812956,23.766885],[72.809919,23.7657],[72.807544,23.765305],[72.805962,23.765306],[72.803721,23.7657],[72.803461,23.767148],[72.803603,23.770964],[72.804665,23.773464],[72.809033,23.77886],[72.811016,23.780571],[72.814053,23.781886],[72.816694,23.782808],[72.820522,23.78386],[72.824616,23.785439],[72.838638,23.798731],[72.840757,23.801363],[72.841423,23.803337],[72.841824,23.805179],[72.843288,23.80939],[72.843958,23.812548],[72.84464,23.819655],[72.848498,23.829919],[72.849959,23.832814],[72.85221,23.835315],[72.857372,23.840052],[72.858695,23.840842],[72.861731,23.840973],[72.863182,23.840842],[72.864237,23.840579],[72.864892,23.839131],[72.865278,23.836236],[72.865261,23.831104],[72.862335,23.82426],[72.860064,23.815575],[72.860184,23.812022],[72.861497,23.810048],[72.863997,23.808074],[72.866499,23.806495],[72.870313,23.80281],[72.870438,23.800968],[72.869638,23.798336],[72.8642,23.789387],[72.859686,23.780439],[72.854778,23.771622],[72.852371,23.761489],[72.848781,23.752014],[72.848378,23.749777],[72.848363,23.745039],[72.849144,23.741618],[72.85779,23.72451],[72.861726,23.71872],[72.866064,23.714903],[72.867899,23.711745],[72.869855,23.70556],[72.872377,23.700974],[72.872817,23.699642],[72.873628,23.698235],[72.87421,23.694904],[72.872982,23.694637],[72.871797,23.695032],[72.870084,23.695032],[72.863888,23.694506],[72.86257,23.694506],[72.859669,23.694111],[72.856374,23.694111],[72.854794,23.694506],[72.854007,23.69569],[72.853749,23.697401],[72.853762,23.701612],[72.852846,23.703586],[72.851007,23.70556],[72.84508,23.708605]]]}},{"type":"Feature","properties":{"aquifer_group":"Sandstone","aquifer_detail":"Sandstone/Conglomerate","aquifer_system":"Multiple","hydraulic_condition":"Unconfined\nSemiconfined to Confined","recharge_score":2.0},"geometry":{"type":"MultiPolygon","coordinates":[[[[73.030736,23.610262],[73.019723,23.610067],[73.018924,23.615133],[73.018913,23.618188],[73.021382,23.619642],[73.02415,23.619061],[73.03041,23.619061],[73.030625,23.618954],[73.030736,23.610262]]],[[[72.794696,23.817505],[72.797368,23.817505],[72.800635,23.817801],[72.802119,23.817702],[72.8036,23.816419],[72.805571,23.813557],[72.812868,23.804477],[72.813359,23.803194],[72.81365,23.801023],[72.813635,23.79589],[72.813333,23.793818],[72.811337,23.787995],[72.808358,23.783849],[72.804673,23.775065],[72.801896,23.772105],[72.800704,23.770229],[72.798513,23.764702],[72.797911,23.761643],[72.797901,23.757991],[72.798292,23.756313],[72.800439,23.754396],[72.802587,23.753138],[72.803226,23.752012],[72.802622,23.749646],[72.802612,23.745961],[72.802764,23.745714],[72.801801,23.743588],[72.801744,23.740527],[72.802786,23.735965],[72.805585,23.730877],[72.809965,23.725788],[72.812762,23.720349],[72.813805,23.716138],[72.8166,23.710172],[72.818353,23.708593],[72.823422,23.699118],[72.829373,23.691047],[72.832344,23.685783],[72.832677,23.679642],[72.834921,23.666306],[72.834728,23.660341],[72.833309,23.655779],[72.830308,23.650866],[72.82203,23.643497],[72.820269,23.641567],[72.819033,23.639637],[72.819204,23.637707],[72.819726,23.636303],[72.821478,23.634549],[72.823753,23.631917],[72.825851,23.628583],[72.826547,23.626302],[72.828471,23.623845],[72.833024,23.619458],[72.835652,23.617353],[72.838457,23.615949],[72.844768,23.612439],[72.845114,23.611036],[72.84496,23.60688],[72.837842,23.606746],[72.837783,23.607169],[72.837045,23.608279],[72.836159,23.609242],[72.83468,23.609908],[72.831497,23.610648],[72.829944,23.611537],[72.828764,23.613535],[72.828397,23.614424],[72.827814,23.617903],[72.826561,23.62005],[72.825897,23.62079],[72.824714,23.621678],[72.822421,23.623011],[72.819762,23.625676],[72.81755,23.629451],[72.813205,23.638704],[72.813137,23.640925],[72.813734,23.642405],[72.815817,23.645144],[72.824364,23.653878],[72.825775,23.655136],[72.828823,23.658393],[72.830385,23.660318],[72.830982,23.661576],[72.831282,23.662686],[72.831434,23.663871],[72.831442,23.66661],[72.83019,23.669348],[72.828784,23.670311],[72.828196,23.671865],[72.827979,23.673568],[72.827985,23.675566],[72.828368,23.679638],[72.828302,23.682451],[72.826016,23.686596],[72.823359,23.690667],[72.820108,23.694368],[72.818481,23.695849],[72.814775,23.696145],[72.812629,23.697404],[72.812038,23.69807],[72.811892,23.698958],[72.812043,23.699846],[72.812639,23.700809],[72.813903,23.702141],[72.814202,23.703177],[72.814206,23.704288],[72.809049,23.716353],[72.808462,23.718648],[72.806025,23.722201],[72.799522,23.730418],[72.797752,23.734045],[72.795984,23.738634],[72.795405,23.744112],[72.794304,23.748331],[72.792682,23.751958],[72.791872,23.754327],[72.791654,23.755808],[72.791743,23.761433],[72.791898,23.764098],[72.7922,23.766171],[72.793993,23.770908],[72.79653,23.77646],[72.799667,23.784232],[72.80101,23.786823],[72.803914,23.790746],[72.804289,23.792226],[72.804293,23.793707],[72.802373,23.79689],[72.802302,23.798074],[72.802902,23.800517],[72.803647,23.801553],[72.804911,23.802515],[72.805656,23.803404],[72.805658,23.804292],[72.805365,23.80555],[72.804626,23.806587],[72.803515,23.807401],[72.802477,23.807845],[72.800993,23.807993],[72.799584,23.808585],[72.79536,23.810806],[72.793729,23.811472],[72.792322,23.812434],[72.790027,23.814655],[72.788548,23.816728],[72.78744,23.8188],[72.786487,23.823315],[72.786201,23.827609],[72.786466,23.844042],[72.786995,23.847373],[72.789163,23.853294],[72.792295,23.858698],[72.79453,23.861659],[72.798036,23.867507],[72.799529,23.870394],[72.79984,23.875501],[72.800172,23.888751],[72.800643,23.897856],[72.800354,23.904003],[72.805337,23.904087],[72.805387,23.89054],[72.804876,23.884618],[72.804657,23.877117],[72.803657,23.873466],[72.801163,23.866557],[72.798475,23.861128],[72.792955,23.852718],[72.791913,23.850371],[72.7917,23.844449],[72.791091,23.83902],[72.790189,23.834579],[72.789585,23.830631],[72.789477,23.827276],[72.78957,23.824808],[72.790059,23.822736],[72.79065,23.821551],[72.791932,23.819775],[72.793609,23.8179],[72.794696,23.817505]]]]}},{"type":"Feature","properties":{"aquifer_group":"Sandstone","aquifer_detail":"Sandstone with Clay","aquifer_system":"Multiple","hydraulic_condition":"Unconfined\nSemiconfined to Confined","recharge_score":2.0},"geometry":{"type":"Polygon","coordinates":[[[72.983591,23.872201],[72.981954,23.871461],[72.979798,23.870869],[72.977868,23.870869],[72.974454,23.871387],[72.970964,23.871387],[72.968736,23.871313],[72.96621,23.871016],[72.959824,23.870868],[72.95797,23.87146],[72.957527,23.871979],[72.95753,23.872719],[72.957756,23.873533],[72.959175,23.875606],[72.96387,23.879603],[72.966775,23.881528],[72.973543,23.883971],[72.975624,23.884267],[72.977555,23.884267],[72.982158,23.883971],[72.986235,23.882491],[72.988602,23.880344],[72.989267,23.879382],[72.98956,23.878642],[72.989555,23.877531],[72.988729,23.875458],[72.987984,23.874792],[72.983591,23.872201]]]}},{"type":"Feature","properties":{"aquifer_group":"Alluvium","aquifer_detail":"Older Alluvium (Silt/Sand/Gravel/Lithomargic clay)","aquifer_system":"Multiple","hydraulic_condition":"Semi-confined to Confined","recharge_score":3.0},"geometry":{"type":"MultiPolygon","coordinates":[[[[72.890117,23.607722],[72.886378,23.607653],[72.880878,23.613761],[72.881003,23.615154],[72.884768,23.611452],[72.889646,23.608195],[72.890117,23.607722]]],[[[72.863839,23.625513],[72.863832,23.623232],[72.864176,23.621126],[72.866807,23.620249],[72.868738,23.619898],[72.871894,23.618494],[72.874173,23.617265],[72.876097,23.61516],[72.877145,23.61358],[72.876787,23.611475],[72.875906,23.610598],[72.868356,23.610598],[72.862222,23.61127],[72.861513,23.610895],[72.861095,23.610437],[72.86105,23.609563],[72.862336,23.607772],[72.862934,23.607217],[72.84496,23.60688],[72.845114,23.611036],[72.844768,23.612439],[72.838457,23.615949],[72.835652,23.617353],[72.833024,23.619458],[72.828471,23.623845],[72.826547,23.626302],[72.826421,23.626713],[72.829469,23.623965],[72.831245,23.623299],[72.836061,23.62352],[72.841028,23.624409],[72.849329,23.62537],[72.849552,23.625889],[72.84948,23.626407],[72.848815,23.627073],[72.846676,23.62996],[72.846686,23.633291],[72.84825,23.635734],[72.855387,23.643432],[72.858136,23.64543],[72.859471,23.645874],[72.861695,23.64617],[72.865993,23.646392],[72.869403,23.646762],[72.872,23.64765],[72.873708,23.648761],[72.874304,23.649723],[72.87401,23.650463],[72.873721,23.65261],[72.874179,23.656607],[72.874191,23.66016],[72.87368,23.662381],[72.872945,23.664158],[72.871546,23.666823],[72.871253,23.667933],[72.871111,23.669858],[72.871707,23.670598],[72.872523,23.670894],[72.874228,23.670894],[72.876524,23.670524],[72.877632,23.669561],[72.878443,23.668303],[72.881101,23.665268],[72.884058,23.663047],[72.885234,23.660234],[72.885303,23.658679],[72.884703,23.656829],[72.879935,23.649575],[72.878521,23.64765],[72.87755,23.645355],[72.877065,23.642313],[72.873901,23.640777],[72.869682,23.639549],[72.867217,23.637795],[72.864744,23.633759],[72.864738,23.631829],[72.863839,23.625513]]],[[[72.837842,23.606746],[72.787774,23.605794],[72.786286,23.694253],[72.78703,23.695384],[72.788371,23.698123],[72.790608,23.703082],[72.791355,23.705155],[72.791751,23.714482],[72.791464,23.718257],[72.790361,23.722032],[72.788588,23.724623],[72.787629,23.726399],[72.7855,23.740757],[72.784414,23.804842],[72.78531,23.805232],[72.785906,23.806269],[72.785689,23.808193],[72.784804,23.810266],[72.784312,23.810849],[72.783024,23.886564],[72.785392,23.894725],[72.78615,23.900573],[72.786766,23.903775],[72.800354,23.904003],[72.800643,23.897856],[72.800172,23.888751],[72.79984,23.875501],[72.799529,23.870394],[72.798036,23.867507],[72.79453,23.861659],[72.792295,23.858698],[72.789163,23.853294],[72.786995,23.847373],[72.786466,23.844042],[72.786213,23.832124],[72.786201,23.827609],[72.786487,23.823315],[72.78744,23.8188],[72.788548,23.816728],[72.790027,23.814655],[72.792322,23.812434],[72.793729,23.811472],[72.79536,23.810806],[72.799584,23.808585],[72.800993,23.807993],[72.802477,23.807845],[72.803515,23.807401],[72.804626,23.806587],[72.805365,23.80555],[72.805658,23.804292],[72.805656,23.803404],[72.804911,23.802515],[72.803647,23.801553],[72.802902,23.800517],[72.802302,23.798074],[72.802373,23.79689],[72.804293,23.793707],[72.804289,23.792226],[72.803914,23.790746],[72.80101,23.786823],[72.799667,23.784232],[72.79653,23.77646],[72.793993,23.770908],[72.7922,23.766171],[72.791898,23.764098],[72.791663,23.759435],[72.791654,23.755808],[72.791872,23.754327],[72.792682,23.751958],[72.794304,23.748331],[72.795405,23.744112],[72.795984,23.738634],[72.797752,23.734045],[72.799522,23.730418],[72.806025,23.722201],[72.808462,23.718648],[72.809049,23.716353],[72.814206,23.704288],[72.814202,23.703177],[72.813903,23.702141],[72.812639,23.700809],[72.812043,23.699846],[72.811892,23.698958],[72.812038,23.69807],[72.812629,23.697404],[72.814775,23.696145],[72.818481,23.695849],[72.820108,23.694368],[72.823359,23.690667],[72.826016,23.686596],[72.828302,23.682451],[72.828368,23.679638],[72.827985,23.675566],[72.827979,23.673568],[72.828196,23.671865],[72.828784,23.670311],[72.83019,23.669348],[72.831442,23.66661],[72.831434,23.663871],[72.831282,23.662686],[72.830982,23.661576],[72.830385,23.660318],[72.828823,23.658393],[72.825775,23.655136],[72.824364,23.653878],[72.815817,23.645144],[72.813734,23.642405],[72.813137,23.640925],[72.813205,23.638704],[72.81755,23.629451],[72.819762,23.625676],[72.822421,23.623011],[72.824714,23.621678],[72.825897,23.62079],[72.826561,23.62005],[72.827814,23.617903],[72.828397,23.614424],[72.828764,23.613535],[72.829944,23.611537],[72.831497,23.610648],[72.83468,23.609908],[72.836159,23.609242],[72.837045,23.608279],[72.837783,23.607169],[72.837842,23.606746]]],[[[73.026905,23.907632],[73.027827,23.836583],[73.024181,23.838291],[73.021258,23.838179],[73.01935,23.837506],[73.017561,23.835039],[73.01858,23.833021],[73.018146,23.828873],[73.018491,23.826742],[73.020632,23.825285],[73.022882,23.824725],[73.024455,23.825061],[73.025124,23.826294],[73.027925,23.829006],[73.029269,23.724757],[73.026109,23.722451],[73.019444,23.722342],[73.011685,23.722778],[73.006331,23.722668],[73.004805,23.721577],[73.004599,23.718523],[73.008555,23.712633],[73.012396,23.70827],[73.015471,23.704015],[73.016023,23.702488],[73.015485,23.700307],[73.010692,23.696816],[73.008645,23.68918],[73.002098,23.687434],[73.000139,23.689592],[73.000112,23.694075],[73.002497,23.697034],[73.004126,23.699652],[73.004005,23.702488],[73.001588,23.706088],[73.000033,23.706844],[73.001943,23.710662],[73.001111,23.715102],[73.001804,23.718155],[73.002637,23.726064],[73.001943,23.730088],[73.000097,23.733032],[72.997754,23.732084],[72.996463,23.730998],[72.994868,23.727939],[72.994346,23.721918],[72.994513,23.715107],[72.993912,23.713331],[72.992626,23.713133],[72.990459,23.715009],[72.989672,23.715897],[72.98829,23.716391],[72.9871,23.715404],[72.986997,23.714614],[72.986991,23.713232],[72.987277,23.710863],[72.988551,23.708297],[72.990898,23.702572],[72.991667,23.697539],[72.991733,23.690136],[72.99123,23.688359],[72.988645,23.684905],[72.985667,23.681845],[72.98428,23.681056],[72.981502,23.678687],[72.979913,23.677009],[72.978323,23.675035],[72.97713,23.673259],[72.976431,23.671679],[72.976326,23.670298],[72.976702,23.665856],[72.977486,23.664178],[72.980632,23.660625],[72.983783,23.658058],[72.985559,23.657367],[72.989116,23.657367],[72.993663,23.657663],[72.995643,23.658453],[72.998913,23.660624],[73.000212,23.661808],[73.001128,23.663311],[73.002065,23.665496],[73.002221,23.67057],[73.001831,23.674628],[73.001206,23.67658],[73.001379,23.6809],[73.003318,23.682744],[73.004738,23.682744],[73.005722,23.682526],[73.007149,23.680671],[73.009119,23.679799],[73.010424,23.681217],[73.012269,23.684271],[73.017378,23.691035],[73.022377,23.698016],[73.02465,23.70358],[73.025295,23.706307],[73.023979,23.707725],[73.023647,23.708815],[73.027459,23.711979],[73.029402,23.714436],[73.030625,23.618954],[73.03041,23.619061],[73.02415,23.619061],[73.021382,23.619642],[73.018913,23.618188],[73.018924,23.615133],[73.019723,23.610067],[73.007039,23.609843],[73.007155,23.610267],[73.007155,23.613967],[73.006415,23.616187],[73.004195,23.618161],[73.002961,23.620381],[73.002715,23.623341],[73.006908,23.628028],[73.007402,23.631235],[73.006662,23.633208],[73.003702,23.634195],[73.000057,23.63381],[72.997452,23.632843],[72.994181,23.630276],[72.989713,23.625342],[72.985634,23.618729],[72.980956,23.609377],[72.968924,23.609161],[72.967799,23.612998],[72.967545,23.615104],[72.967704,23.621684],[72.967446,23.622868],[72.966661,23.624053],[72.965348,23.625105],[72.962983,23.626553],[72.959704,23.629843],[72.956836,23.63695],[72.947401,23.649058],[72.941102,23.655112],[72.936239,23.65827],[72.934136,23.659323],[72.931765,23.659586],[72.929658,23.659718],[72.92386,23.659718],[72.920565,23.659455],[72.914058,23.656661],[72.912849,23.656703],[72.912433,23.656786],[72.9121,23.657036],[72.912188,23.658244],[72.912659,23.659192],[72.913193,23.660903],[72.914121,23.662614],[72.915322,23.66643],[72.915071,23.669983],[72.913891,23.671299],[72.912442,23.671563],[72.911059,23.671363],[72.906633,23.669739],[72.904757,23.669698],[72.904259,23.670281],[72.904465,23.672225],[72.906396,23.675774],[72.910237,23.680906],[72.911435,23.682814],[72.911816,23.684271],[72.911861,23.685229],[72.911822,23.686061],[72.911312,23.686565],[72.909773,23.686799],[72.908289,23.686577],[72.907249,23.685985],[72.906132,23.684579],[72.903905,23.683691],[72.902422,23.683691],[72.900275,23.684357],[72.898354,23.686134],[72.896733,23.688872],[72.895851,23.690797],[72.895117,23.693824],[72.891444,23.695383],[72.889862,23.695383],[72.8863,23.69433],[72.881685,23.693672],[72.87786,23.692751],[72.865998,23.69262],[72.855982,23.692752],[72.85111,23.693936],[72.849277,23.697884],[72.848238,23.702885],[72.84508,23.708605],[72.851007,23.70556],[72.852846,23.703586],[72.853762,23.701612],[72.853749,23.697401],[72.854007,23.69569],[72.854794,23.694506],[72.856374,23.694111],[72.859669,23.694111],[72.86257,23.694506],[72.863888,23.694506],[72.870084,23.695032],[72.871797,23.695032],[72.872982,23.694637],[72.87421,23.694904],[72.873628,23.698235],[72.872817,23.699642],[72.872377,23.700974],[72.869855,23.70556],[72.867899,23.711745],[72.866064,23.714903],[72.861726,23.71872],[72.85779,23.72451],[72.849144,23.741618],[72.848363,23.745039],[72.848378,23.749777],[72.848781,23.752014],[72.852371,23.761489],[72.854778,23.771622],[72.859686,23.780439],[72.8642,23.789387],[72.869638,23.798336],[72.870438,23.800968],[72.870313,23.80281],[72.866499,23.806495],[72.863997,23.808074],[72.861497,23.810048],[72.860184,23.812022],[72.860064,23.815575],[72.862335,23.82426],[72.865261,23.831104],[72.865278,23.836236],[72.864892,23.839131],[72.864237,23.840579],[72.863182,23.840842],[72.861731,23.840973],[72.858695,23.840842],[72.857372,23.840052],[72.856181,23.838999],[72.85221,23.835315],[72.849959,23.832814],[72.848498,23.829919],[72.84464,23.819655],[72.843958,23.812548],[72.843288,23.80939],[72.841824,23.805179],[72.841423,23.803337],[72.840757,23.801363],[72.838638,23.798731],[72.824616,23.785439],[72.820522,23.78386],[72.816694,23.782808],[72.814053,23.781886],[72.811016,23.780571],[72.809033,23.77886],[72.804665,23.773464],[72.803603,23.770964],[72.803461,23.767148],[72.803721,23.7657],[72.805962,23.765306],[72.807544,23.765305],[72.809919,23.7657],[72.812956,23.766885],[72.82021,23.767016],[72.821394,23.766227],[72.821919,23.765305],[72.82152,23.764253],[72.819671,23.763068],[72.817029,23.761752],[72.811616,23.759647],[72.808711,23.758068],[72.803554,23.753067],[72.803226,23.752012],[72.802587,23.753138],[72.800439,23.754396],[72.798292,23.756313],[72.797901,23.757991],[72.797911,23.761643],[72.798513,23.764702],[72.800704,23.770229],[72.801896,23.772105],[72.804673,23.775065],[72.808358,23.783849],[72.811337,23.787995],[72.813333,23.793818],[72.813635,23.79589],[72.81365,23.801023],[72.813359,23.803194],[72.812868,23.804477],[72.805571,23.813557],[72.8036,23.816419],[72.802119,23.817702],[72.800635,23.817801],[72.797368,23.817505],[72.794696,23.817505],[72.793609,23.8179],[72.791932,23.819775],[72.79065,23.821551],[72.790059,23.822736],[72.78957,23.824808],[72.789477,23.827276],[72.789585,23.830631],[72.790189,23.834579],[72.791091,23.83902],[72.7917,23.844449],[72.791913,23.850371],[72.792955,23.852718],[72.798475,23.861128],[72.801163,23.866557],[72.803657,23.873466],[72.804657,23.877117],[72.804876,23.884618],[72.805387,23.89054],[72.805337,23.904087],[72.838971,23.904645],[72.837492,23.903783],[72.828171,23.899736],[72.818457,23.896577],[72.815185,23.894998],[72.813003,23.893814],[72.811711,23.892432],[72.811113,23.890952],[72.81121,23.890162],[72.8119,23.889175],[72.81279,23.888583],[72.814175,23.888089],[72.81863,23.887991],[72.823485,23.888978],[72.825766,23.889965],[72.828345,23.891347],[72.830029,23.891643],[72.833104,23.893518],[72.834691,23.894209],[72.837763,23.894999],[72.84212,23.895098],[72.843505,23.894604],[72.844592,23.893815],[72.845975,23.89263],[72.847159,23.891249],[72.847849,23.890261],[72.849323,23.886807],[72.850308,23.885228],[72.851493,23.883945],[72.852575,23.881971],[72.854057,23.880688],[72.857912,23.878813],[72.860585,23.878714],[72.861576,23.87901],[72.862469,23.879504],[72.863067,23.880787],[72.863769,23.883254],[72.864283,23.889275],[72.864688,23.89194],[72.865292,23.894901],[72.86649,23.897763],[72.867472,23.905113],[72.879344,23.905306],[72.877298,23.901613],[72.875009,23.898355],[72.871627,23.894111],[72.870531,23.892039],[72.870609,23.885821],[72.870902,23.88434],[72.87047,23.873878],[72.870955,23.87072],[72.872337,23.869634],[72.873523,23.869042],[72.875106,23.868647],[72.87956,23.86845],[72.883918,23.868746],[72.886098,23.869437],[72.888675,23.870325],[72.893138,23.872299],[72.894032,23.873188],[72.894629,23.874076],[72.894932,23.875853],[72.89494,23.878024],[72.893859,23.880195],[72.893469,23.881972],[72.893487,23.887104],[72.89379,23.888585],[72.894687,23.890263],[72.896375,23.891645],[72.900347,23.894606],[72.9065,23.898258],[72.91116,23.899837],[72.917409,23.902206],[72.924844,23.90418],[72.92889,23.906103],[73.026905,23.907632]],[[72.958848,23.886043],[72.959291,23.885525],[72.960257,23.885599],[72.962789,23.887228],[72.969856,23.890115],[72.973952,23.892632],[72.977226,23.894261],[72.98682,23.897222],[72.988532,23.897888],[72.990546,23.899887],[72.990697,23.900479],[72.990403,23.901071],[72.989812,23.901738],[72.988774,23.902256],[72.98261,23.90233],[72.981049,23.902182],[72.979264,23.901737],[72.977106,23.900701],[72.975243,23.899146],[72.970996,23.896185],[72.967049,23.893742],[72.964519,23.892484],[72.96221,23.890929],[72.959974,23.889004],[72.959079,23.888042],[72.958704,23.887376],[72.958848,23.886043]],[[72.95797,23.87146],[72.959824,23.870868],[72.96621,23.871016],[72.968736,23.871313],[72.970964,23.871387],[72.974454,23.871387],[72.977868,23.870869],[72.979798,23.870869],[72.981954,23.871461],[72.983591,23.872201],[72.987984,23.874792],[72.988729,23.875458],[72.989555,23.877531],[72.98956,23.878642],[72.989267,23.879382],[72.988602,23.880344],[72.986235,23.882491],[72.982158,23.883971],[72.975624,23.884267],[72.973543,23.883971],[72.966775,23.881528],[72.96387,23.879603],[72.959175,23.875606],[72.957756,23.873533],[72.95753,23.872719],[72.957527,23.871979],[72.95797,23.87146]],[[72.815759,23.873349],[72.813456,23.873484],[72.81156,23.873078],[72.809528,23.871994],[72.807496,23.869963],[72.806683,23.867118],[72.806142,23.862107],[72.803297,23.855741],[72.802349,23.852354],[72.801672,23.850594],[72.801807,23.847478],[72.803704,23.84653],[72.806277,23.848562],[72.80858,23.853303],[72.810069,23.859669],[72.814675,23.865899],[72.818061,23.869556],[72.818603,23.871182],[72.818061,23.872672],[72.815759,23.873349]],[[72.983351,23.86076],[72.978449,23.860316],[72.968352,23.860464],[72.967089,23.860242],[72.966121,23.859649],[72.965672,23.858835],[72.965071,23.857059],[72.964917,23.855726],[72.964909,23.853949],[72.96549,23.850914],[72.966372,23.848694],[72.968662,23.846103],[72.969473,23.844696],[72.970647,23.841513],[72.971531,23.839959],[72.972935,23.838404],[72.974121,23.838182],[72.974865,23.838404],[72.97509,23.838922],[72.975241,23.839589],[72.975252,23.842179],[72.975792,23.846843],[72.976041,23.847517],[72.990008,23.847126],[72.991452,23.845955],[72.993157,23.845363],[72.995604,23.844771],[72.997683,23.844771],[72.999318,23.845141],[72.999978,23.845705],[73.001492,23.846528],[73.002091,23.846702],[73.005229,23.845708],[73.007346,23.846623],[73.011358,23.849894],[73.015251,23.85124],[73.016143,23.853034],[73.015076,23.857668],[73.011471,23.85976],[73.008622,23.85991],[73.00578,23.858265],[73.003532,23.857966],[72.999994,23.85627],[72.996612,23.85432],[72.993866,23.85432],[72.99305,23.854468],[72.992309,23.854838],[72.992089,23.855504],[72.99202,23.856615],[72.992109,23.859872],[72.991889,23.860612],[72.991298,23.861204],[72.989592,23.861723],[72.987885,23.861723],[72.983351,23.86076]],[[73.011908,23.814073],[73.013374,23.812839],[73.014493,23.813961],[73.017076,23.814634],[73.019439,23.813961],[73.02135,23.813849],[73.022696,23.814522],[73.023363,23.816428],[73.022344,23.818446],[73.019066,23.823379],[73.017492,23.823379],[73.014247,23.819567],[73.011901,23.815867],[73.011908,23.814073]]]]}},{"type":"Feature","properties":{"aquifer_group":"Alluvium","aquifer_detail":"Aeolian Alluvium (Silt/ Sand)","aquifer_system":"Multiple","hydraulic_condition":"Semi-confined to Confined","recharge_score":3.0},"geometry":{"type":"MultiPolygon","coordinates":[[[[73.007039,23.609843],[72.980956,23.609377],[72.985634,23.618729],[72.989713,23.625342],[72.994181,23.630276],[72.997452,23.632843],[73.000057,23.63381],[73.003702,23.634195],[73.006662,23.633208],[73.007402,23.631235],[73.006908,23.628028],[73.002715,23.623341],[73.002961,23.620381],[73.004195,23.618161],[73.006415,23.616187],[73.007155,23.613967],[73.007155,23.610267],[73.007039,23.609843]]],[[[72.78703,23.695384],[72.786286,23.694253],[72.7855,23.740757],[72.787629,23.726399],[72.788588,23.724623],[72.790361,23.722032],[72.791464,23.718257],[72.791751,23.714482],[72.791355,23.705155],[72.790608,23.703082],[72.78703,23.695384]]],[[[72.78531,23.805232],[72.784414,23.804842],[72.784312,23.810849],[72.784804,23.810266],[72.785689,23.808193],[72.785906,23.806269],[72.78531,23.805232]]],[[[72.785392,23.894725],[72.783024,23.886564],[72.782732,23.903707],[72.786766,23.903775],[72.78615,23.900573],[72.785392,23.894725]]]]}},{"type":"Feature","properties":{"aquifer_group":"Basalt","aquifer_detail":"Basic Rocks (Basalt)","aquifer_system":"Single","hydraulic_condition":"Unconfined\nSemi-confined","recharge_score":2.0},"geometry":{"type":"Polygon","coordinates":[[[72.881003,23.615154],[72.880878,23.613761],[72.886378,23.607653],[72.862934,23.607217],[72.862336,23.607772],[72.86105,23.609563],[72.861095,23.610437],[72.861513,23.610895],[72.862222,23.61127],[72.868356,23.610598],[72.875906,23.610598],[72.876787,23.611475],[72.877145,23.61358],[72.876097,23.61516],[72.874173,23.617265],[72.871894,23.618494],[72.868738,23.619898],[72.866807,23.620249],[72.864176,23.621126],[72.863832,23.623232],[72.863839,23.625513],[72.864738,23.631829],[72.864744,23.633759],[72.867217,23.637795],[72.869682,23.639549],[72.873901,23.640777],[72.877065,23.642313],[72.876778,23.636399],[72.876513,23.623667],[72.877024,23.621594],[72.878496,23.618855],[72.881003,23.615154]]]}},{"type":"Feature","properties":{"aquifer_group":"Granite","aquifer_detail":"Acidic Rocks (Pegmatite, Granite, Syenite, Rhyolit","aquifer_system":"Single","hydraulic_condition":"Semi Unconfined","recharge_score":1.0},"geometry":{"type":"MultiPolygon","coordinates":[[[[73.023363,23.816428],[73.022696,23.814522],[73.02135,23.813849],[73.019439,23.813961],[73.017076,23.814634],[73.014493,23.813961],[73.013374,23.812839],[73.011908,23.814073],[73.011901,23.815867],[73.014247,23.819567],[73.017492,23.823379],[73.019066,23.823379],[73.022344,23.818446],[73.023363,23.816428]]],[[[73.024455,23.825061],[73.022882,23.824725],[73.020632,23.825285],[73.018491,23.826742],[73.018146,23.828873],[73.01858,23.833021],[73.017561,23.835039],[73.01935,23.837506],[73.021258,23.838179],[73.024181,23.838291],[73.027827,23.836583],[73.027925,23.829006],[73.025124,23.826294],[73.024455,23.825061]]],[[[72.991889,23.860612],[72.992109,23.859872],[72.992089,23.855504],[72.992309,23.854838],[72.99305,23.854468],[72.993866,23.85432],[72.996612,23.85432],[72.999994,23.85627],[73.003532,23.857966],[73.00578,23.858265],[73.008622,23.85991],[73.011471,23.85976],[73.015076,23.857668],[73.016143,23.853034],[73.015251,23.85124],[73.011358,23.849894],[73.007346,23.846623],[73.005229,23.845708],[73.002091,23.846702],[73.001492,23.846528],[72.999978,23.845705],[72.999318,23.845141],[72.997683,23.844771],[72.995604,23.844771],[72.993157,23.845363],[72.991452,23.845955],[72.990008,23.847126],[72.976041,23.847517],[72.975792,23.846843],[72.975252,23.842179],[72.975241,23.839589],[72.97509,23.838922],[72.974865,23.838404],[72.974121,23.838182],[72.972935,23.838404],[72.971531,23.839959],[72.970647,23.841513],[72.969473,23.844696],[72.968662,23.846103],[72.966372,23.848694],[72.96549,23.850914],[72.964909,23.853949],[72.964917,23.855726],[72.965071,23.857059],[72.965672,23.858835],[72.966121,23.859649],[72.967089,23.860242],[72.968352,23.860464],[72.978449,23.860316],[72.983351,23.86076],[72.987885,23.861723],[72.989592,23.861723],[72.991298,23.861204],[72.991889,23.860612]]],[[[72.806277,23.848562],[72.803704,23.84653],[72.801807,23.847478],[72.801672,23.850594],[72.802349,23.852354],[72.803297,23.855741],[72.806142,23.862107],[72.806683,23.867118],[72.807496,23.869963],[72.809528,23.871994],[72.81156,23.873078],[72.813456,23.873484],[72.815759,23.873349],[72.818061,23.872672],[72.818603,23.871182],[72.818061,23.869556],[72.814675,23.865899],[72.810069,23.859669],[72.80858,23.853303],[72.806277,23.848562]]],[[[72.960257,23.885599],[72.959291,23.885525],[72.958848,23.886043],[72.958702,23.886858],[72.958704,23.887376],[72.959079,23.888042],[72.959974,23.889004],[72.96221,23.890929],[72.964519,23.892484],[72.967049,23.893742],[72.970996,23.896185],[72.975243,23.899146],[72.977106,23.900701],[72.979264,23.901737],[72.981049,23.902182],[72.98261,23.90233],[72.988774,23.902256],[72.989812,23.901738],[72.990403,23.901071],[72.990697,23.900479],[72.990546,23.899887],[72.988532,23.897888],[72.98682,23.897222],[72.977226,23.894261],[72.973952,23.892632],[72.969856,23.890115],[72.962789,23.887228],[72.960257,23.885599]]],[[[72.86649,23.897763],[72.865292,23.894901],[72.864688,23.89194],[72.864283,23.889275],[72.863769,23.883254],[72.863067,23.880787],[72.862469,23.879504],[72.861576,23.87901],[72.860585,23.878714],[72.857912,23.878813],[72.854057,23.880688],[72.852575,23.881971],[72.851493,23.883945],[72.850308,23.885228],[72.849323,23.886807],[72.847849,23.890261],[72.847159,23.891249],[72.845975,23.89263],[72.844592,23.893815],[72.843505,23.894604],[72.84212,23.895098],[72.837763,23.894999],[72.834691,23.894209],[72.833104,23.893518],[72.830029,23.891643],[72.828345,23.891347],[72.825766,23.889965],[72.823485,23.888978],[72.81863,23.887991],[72.814175,23.888089],[72.81279,23.888583],[72.8119,23.889175],[72.81121,23.890162],[72.811113,23.890952],[72.811711,23.892432],[72.813003,23.893814],[72.815185,23.894998],[72.818457,23.896577],[72.828171,23.899736],[72.837492,23.903783],[72.838971,23.904645],[72.867472,23.905113],[72.86649,23.897763]]],[[[72.883918,23.868746],[72.877877,23.86845],[72.875106,23.868647],[72.873523,23.869042],[72.872337,23.869634],[72.870955,23.87072],[72.87047,23.873878],[72.870902,23.88434],[72.870609,23.885821],[72.870531,23.892039],[72.871627,23.894111],[72.875009,23.898355],[72.877298,23.901613],[72.879344,23.905306],[72.92889,23.906103],[72.924844,23.90418],[72.917409,23.902206],[72.91116,23.899837],[72.9065,23.898258],[72.900347,23.894606],[72.896375,23.891645],[72.894687,23.890263],[72.89379,23.888585],[72.893487,23.887104],[72.893469,23.881972],[72.893859,23.880195],[72.89494,23.878024],[72.894932,23.875853],[72.894629,23.874076],[72.894032,23.873188],[72.893138,23.872299],[72.888675,23.870325],[72.883918,23.868746]]]]}},{"type":"Feature","properties":{"aquifer_group":"Quartzite","aquifer_detail":"Quartzite","aquifer_system":"Single","hydraulic_condition":"Unconfined Semi-confined","recharge_score":1.0},"geometry":{"type":"Polygon","coordinates":[[[73.029269,23.724757],[73.029402,23.714436],[73.027459,23.711979],[73.023647,23.708815],[73.023979,23.707725],[73.025295,23.706307],[73.02465,23.70358],[73.022377,23.698016],[73.017378,23.691035],[73.012269,23.684271],[73.010424,23.681217],[73.009119,23.679799],[73.007149,23.680671],[73.005722,23.682526],[73.004738,23.682744],[73.003318,23.682744],[73.001379,23.6809],[73.001206,23.67658],[73.001831,23.674628],[73.002221,23.67057],[73.002065,23.665496],[73.001128,23.663311],[73.000212,23.661808],[72.998913,23.660624],[72.995643,23.658453],[72.993663,23.657663],[72.989116,23.657367],[72.985559,23.657367],[72.983783,23.658058],[72.980632,23.660625],[72.977486,23.664178],[72.976702,23.665856],[72.976326,23.670298],[72.976431,23.671679],[72.97713,23.673259],[72.978323,23.675035],[72.979913,23.677009],[72.981502,23.678687],[72.98428,23.681056],[72.985667,23.681845],[72.988645,23.684905],[72.99123,23.688359],[72.991733,23.690136],[72.991667,23.697539],[72.990898,23.702572],[72.988551,23.708297],[72.987277,23.710863],[72.986991,23.713232],[72.986997,23.714614],[72.9871,23.715404],[72.98829,23.716391],[72.989672,23.715897],[72.990459,23.715009],[72.992626,23.713133],[72.993912,23.713331],[72.994513,23.715107],[72.994346,23.721918],[72.994868,23.727939],[72.996463,23.730998],[72.997754,23.732084],[73.000097,23.733032],[73.001943,23.730088],[73.002637,23.726064],[73.001804,23.718155],[73.001111,23.715102],[73.001943,23.710662],[73.000033,23.706844],[73.001588,23.706088],[73.004005,23.702488],[73.004126,23.699652],[73.002497,23.697034],[73.000112,23.694075],[73.000139,23.689592],[73.002098,23.687434],[73.008645,23.68918],[73.010692,23.696816],[73.015485,23.700307],[73.016023,23.702488],[73.015471,23.704015],[73.012396,23.70827],[73.008555,23.712633],[73.004599,23.718523],[73.004805,23.721577],[73.006331,23.722668],[73.011685,23.722778],[73.019444,23.722342],[73.026109,23.722451],[73.029269,23.724757]]]}}]}