{"type":"FeatureCollection","features":[{"type":"Feature","properties":{"source_id":1,"source_length_m":1644.57885267},"geometry":{"type":"LineString","coordinates":[[72.857303,23.699184],[72.871155,23.706781]]}},{"type":"Feature","properties":{"source_id":2,"source_length_m":1668.51802493},"geometry":{"type":"LineString","coordinates":[[72.871297,23.706036],[72.88591,23.712806]]}},{"type":"Feature","properties":{"source_id":3,"source_length_m":372.199621966},"geometry":{"type":"LineString","coordinates":[[72.884196,23.716575],[72.887547,23.717904]]}},{"type":"Feature","properties":{"source_id":4,"source_length_m":795.128437401},"geometry":{"type":"LineString","coordinates":[[72.889375,23.717183],[72.896663,23.719731]]}},{"type":"Feature","properties":{"source_id":5,"source_length_m":1595.47584172},"geometry":{"type":"LineString","coordinates":[[72.896728,23.717731],[72.909318,23.709182]]}},{"type":"Feature","properties":{"source_id":6,"source_length_m":782.432961585},"geometry":{"type":"LineString","coordinates":[[72.896222,23.718948],[72.903314,23.721642]]}},{"type":"Feature","properties":{"source_id":7,"source_length_m":2878.20852325},"geometry":{"type":"LineString","coordinates":[[72.903288,23.721224],[72.929942,23.729765]]}},{"type":"Feature","properties":{"source_id":8,"source_length_m":3857.83840365},"geometry":{"type":"LineString","coordinates":[[72.907572,23.727105],[72.919399,23.71762],[72.937296,23.705617]]}},{"type":"Feature","properties":{"source_id":9,"source_length_m":1072.38596607},"geometry":{"type":"LineString","coordinates":[[72.90764,23.708682],[72.916034,23.702853]]}},{"type":"Feature","properties":{"source_id":10,"source_length_m":1130.7140141},"geometry":{"type":"LineString","coordinates":[[72.930816,23.729896],[72.940834,23.73427]]}},{"type":"Feature","properties":{"source_id":11,"source_length_m":2452.50525681},"geometry":{"type":"LineString","coordinates":[[72.937168,23.73437],[72.946179,23.726488],[72.954085,23.71865]]}},{"type":"Feature","properties":{"source_id":12,"source_length_m":471.681425818},"geometry":{"type":"LineString","coordinates":[[72.94317,23.734271],[72.947425,23.73594]]}},{"type":"Feature","properties":{"source_id":13,"source_length_m":1398.7839693},"geometry":{"type":"LineString","coordinates":[[72.949543,23.735371],[72.962081,23.740494]]}},{"type":"Feature","properties":{"source_id":14,"source_length_m":571.789674515},"geometry":{"type":"LineString","coordinates":[[72.96764,23.743882],[72.972832,23.745831]]}},{"type":"Feature","properties":{"source_id":15,"source_length_m":586.250683361},"geometry":{"type":"LineString","coordinates":[[72.974962,23.746546],[72.97995,23.749179]]}},{"type":"Feature","properties":{"source_id":16,"source_length_m":5153.78439982},"geometry":{"type":"LineString","coordinates":[[72.863612,23.641061],[72.893421,23.652219],[72.899693,23.654024],[72.910116,23.659038]]}},{"type":"Feature","properties":{"source_id":17,"source_length_m":2679.20562654},"geometry":{"type":"LineString","coordinates":[[72.909458,23.661322],[72.930469,23.67583]]}},{"type":"Feature","properties":{"source_id":18,"source_length_m":2816.76447924},"geometry":{"type":"LineString","coordinates":[[72.952542,23.699243],[72.955326,23.6924],[72.957483,23.685835],[72.95915,23.674677]]}},{"type":"Feature","properties":{"source_id":19,"source_length_m":3831.934447},"geometry":{"type":"LineString","coordinates":[[72.958219,23.67455],[72.959589,23.670498],[72.960893,23.66266],[72.963443,23.646698],[72.964287,23.64046]]}},{"type":"Feature","properties":{"source_id":20,"source_length_m":2000.29429951},"geometry":{"type":"LineString","coordinates":[[72.960954,23.662776],[72.976025,23.674325]]}},{"type":"Feature","properties":{"source_id":21,"source_length_m":3147.60848974},"geometry":{"type":"LineString","coordinates":[[72.972497,23.689186],[72.997265,23.706135]]}},{"type":"Feature","properties":{"source_id":22,"source_length_m":2304.14472389},"geometry":{"type":"LineString","coordinates":[[72.976435,23.676051],[72.993596,23.689575]]}},{"type":"Feature","properties":{"source_id":23,"source_length_m":6952.86014067},"geometry":{"type":"LineString","coordinates":[[72.941181,23.751562],[72.941638,23.759667],[72.942934,23.778704],[72.944522,23.788643],[72.946643,23.800367],[72.947887,23.808467],[72.948799,23.813869]]}},{"type":"Feature","properties":{"source_id":24,"source_length_m":4057.86180356},"geometry":{"type":"LineString","coordinates":[[72.945056,23.814106],[72.975283,23.837954]]}},{"type":"Feature","properties":{"source_id":25,"source_length_m":1852.11483166},"geometry":{"type":"LineString","coordinates":[[72.938912,23.824343],[72.952194,23.835757]]}},{"type":"Feature","properties":{"source_id":26,"source_length_m":3327.06599802},"geometry":{"type":"LineString","coordinates":[[72.990344,23.815161],[72.982564,23.80646],[72.979103,23.804637],[72.975794,23.801039],[72.968754,23.79292]]}},{"type":"Feature","properties":{"source_id":27,"source_length_m":726.759653913},"geometry":{"type":"LineString","coordinates":[[72.968152,23.789573],[72.969925,23.783218]]}},{"type":"Feature","properties":{"source_id":28,"source_length_m":910.542435671},"geometry":{"type":"LineString","coordinates":[[72.972438,23.781889],[72.97202,23.773678]]}},{"type":"Feature","properties":{"source_id":29,"source_length_m":5600.94276048},"geometry":{"type":"LineString","coordinates":[[72.949324,23.757096],[72.972495,23.769155],[72.983871,23.77475],[72.990179,23.777757],[72.997924,23.780552]]}},{"type":"Feature","properties":{"source_id":30,"source_length_m":1218.22636645},"geometry":{"type":"LineString","coordinates":[[72.976429,23.768576],[72.984589,23.760541]]}},{"type":"Feature","properties":{"source_id":31,"source_length_m":1976.17046209},"geometry":{"type":"LineString","coordinates":[[72.896378,23.753288],[72.903901,23.769729]]}},{"type":"Feature","properties":{"source_id":32,"source_length_m":1698.49482025},"geometry":{"type":"LineString","coordinates":[[72.903568,23.771044],[72.911074,23.784733]]}},{"type":"Feature","properties":{"source_id":33,"source_length_m":3354.58612273},"geometry":{"type":"LineString","coordinates":[[72.865243,23.81386],[72.897378,23.807307]]}},{"type":"Feature","properties":{"source_id":34,"source_length_m":1373.61507534},"geometry":{"type":"LineString","coordinates":[[72.853318,23.807732],[72.864929,23.814027]]}},{"type":"Feature","properties":{"source_id":35,"source_length_m":1527.20115383},"geometry":{"type":"LineString","coordinates":[[72.867166,23.814402],[72.880076,23.821402]]}},{"type":"Feature","properties":{"source_id":36,"source_length_m":1868.60920126},"geometry":{"type":"LineString","coordinates":[[72.840268,23.831914],[72.858212,23.828438]]}},{"type":"Feature","properties":{"source_id":37,"source_length_m":1759.1369056},"geometry":{"type":"LineString","coordinates":[[72.89901,23.829803],[72.912817,23.839335]]}},{"type":"Feature","properties":{"source_id":38,"source_length_m":2571.06519229},"geometry":{"type":"LineString","coordinates":[[72.912214,23.834225],[72.932499,23.848028]]}},{"type":"Feature","properties":{"source_id":39,"source_length_m":1642.39619432},"geometry":{"type":"LineString","coordinates":[[72.931868,23.836726],[72.941591,23.848551]]}},{"type":"Feature","properties":{"source_id":40,"source_length_m":5908.73858652},"geometry":{"type":"LineString","coordinates":[[72.895048,23.831984],[72.906479,23.842058],[72.928338,23.854909],[72.942306,23.862492]]}},{"type":"Feature","properties":{"source_id":41,"source_length_m":2809.73534264},"geometry":{"type":"LineString","coordinates":[[72.887009,23.847353],[72.910544,23.860574]]}},{"type":"Feature","properties":{"source_id":42,"source_length_m":2840.81290843},"geometry":{"type":"LineString","coordinates":[[72.901771,23.855696],[72.899177,23.88123]]}},{"type":"Feature","properties":{"source_id":43,"source_length_m":1805.39250808},"geometry":{"type":"LineString","coordinates":[[72.882795,23.884159],[72.899409,23.878481]]}},{"type":"Feature","properties":{"source_id":44,"source_length_m":1829.86501489},"geometry":{"type":"LineString","coordinates":[[72.829938,23.795423],[72.837864,23.790231],[72.843766,23.784963]]}},{"type":"Feature","properties":{"source_id":45,"source_length_m":4930.72854685},"geometry":{"type":"LineString","coordinates":[[72.926978,23.819093],[72.942544,23.836441],[72.952786,23.849835],[72.956612,23.854246]]}},{"type":"Feature","properties":{"source_id":46,"source_length_m":695.319661163},"geometry":{"type":"LineString","coordinates":[[72.956568,23.852931],[72.960842,23.857825]]}},{"type":"Feature","properties":{"source_id":47,"source_length_m":1655.84367098},"geometry":{"type":"LineString","coordinates":[[72.949392,23.850925],[72.960849,23.861528]]}},{"type":"Feature","properties":{"source_id":48,"source_length_m":1834.99927919},"geometry":{"type":"LineString","coordinates":[[72.943175,23.858128],[72.956243,23.869529]]}},{"type":"Feature","properties":{"source_id":49,"source_length_m":1206.57341553},"geometry":{"type":"LineString","coordinates":[[72.960944,23.855438],[72.965231,23.859496],[72.96841,23.863838]]}},{"type":"Feature","properties":{"source_id":50,"source_length_m":1364.61227584},"geometry":{"type":"LineString","coordinates":[[72.951328,23.839305],[72.959945,23.848736]]}},{"type":"Feature","properties":{"source_id":51,"source_length_m":1375.65268922},"geometry":{"type":"LineString","coordinates":[[72.95007,23.83672],[72.953997,23.838863],[72.960729,23.844267]]}},{"type":"Feature","properties":{"source_id":52,"source_length_m":1288.6925295},"geometry":{"type":"LineString","coordinates":[[72.96244,23.842857],[72.971797,23.850684]]}}]}