{"type":"FeatureCollection","features":[{"type":"Feature","properties":{"structure_id":1,"district":"Sabarkantha","block":"Himmatnagar","village":"Kanai-1","structure_type":"Recharge Borewell","gwrpz_class":3,"nearest_stream_order":2,"nearest_stream_distance_m":137.8761203552882,"nearest_lineament_distance_m":63.488539933808966,"direct_lineament_intersection":false,"siting_alignment_spatial_setting":"Upper-catchment recharge setting"},"geometry":{"type":"Point","coordinates":[72.920643,23.66833]}},{"type":"Feature","properties":{"structure_id":2,"district":"Sabarkantha","block":"Himmatnagar","village":"Kanai-2","structure_type":"Recharge Borewell","gwrpz_class":2,"nearest_stream_order":2,"nearest_stream_distance_m":34.900481599582065,"nearest_lineament_distance_m":1264.3063445922023,"direct_lineament_intersection":false,"siting_alignment_spatial_setting":"Upper-catchment recharge setting"},"geometry":{"type":"Point","coordinates":[72.91394,23.678683]}},{"type":"Feature","properties":{"structure_id":3,"district":"Sabarkantha","block":"Idar","village":"Ruderdi-1","structure_type":"Recharge Borewell","gwrpz_class":3,"nearest_stream_order":1,"nearest_stream_distance_m":70.21798689565033,"nearest_lineament_distance_m":398.5348409852091,"direct_lineament_intersection":false,"siting_alignment_spatial_setting":"Upper-catchment recharge setting"},"geometry":{"type":"Point","coordinates":[72.951237,23.762225]}},{"type":"Feature","properties":{"structure_id":4,"district":"Sabarkantha","block":"Idar","village":"Nana Kotda","structure_type":"Recharge Borewell","gwrpz_class":3,"nearest_stream_order":1,"nearest_stream_distance_m":54.65553350320063,"nearest_lineament_distance_m":230.73421183544127,"direct_lineament_intersection":false,"siting_alignment_spatial_setting":"Upper-catchment recharge setting"},"geometry":{"type":"Point","coordinates":[72.9709,23.7881]}},{"type":"Feature","properties":{"structure_id":5,"district":"Sabarkantha","block":"Idar","village":"Bolundra (SO)-1","structure_type":"Recharge Borewell","gwrpz_class":3,"nearest_stream_order":2,"nearest_stream_distance_m":41.481274814803854,"nearest_lineament_distance_m":442.13584265936134,"direct_lineament_intersection":false,"siting_alignment_spatial_setting":"Upper-catchment recharge setting"},"geometry":{"type":"Point","coordinates":[72.905817,23.784006]}},{"type":"Feature","properties":{"structure_id":6,"district":"Sabarkantha","block":"Idar","village":"Umedgadh-1","structure_type":"Recharge Borewell","gwrpz_class":2,"nearest_stream_order":1,"nearest_stream_distance_m":35.39944725207622,"nearest_lineament_distance_m":1418.0436435425477,"direct_lineament_intersection":false,"siting_alignment_spatial_setting":"Upper-catchment recharge setting"},"geometry":{"type":"Point","coordinates":[72.910612,23.803356]}},{"type":"Feature","properties":{"structure_id":7,"district":"Sabarkantha","block":"Idar","village":"Budheli","structure_type":"Recharge Borewell","gwrpz_class":3,"nearest_stream_order":1,"nearest_stream_distance_m":393.0397326675234,"nearest_lineament_distance_m":699.3992080873844,"direct_lineament_intersection":false,"siting_alignment_spatial_setting":"Upper-catchment recharge setting"},"geometry":{"type":"Point","coordinates":[72.902098,23.81189]}},{"type":"Feature","properties":{"structure_id":8,"district":"Sabarkantha","block":"Idar","village":"Khaski","structure_type":"Recharge Borewell","gwrpz_class":3,"nearest_stream_order":1,"nearest_stream_distance_m":7.1274366761675125,"nearest_lineament_distance_m":259.71904593531985,"direct_lineament_intersection":false,"siting_alignment_spatial_setting":"Upper-catchment recharge setting"},"geometry":{"type":"Point","coordinates":[72.906983,23.838239]}},{"type":"Feature","properties":{"structure_id":9,"district":"Sabarkantha","block":"Idar","village":"Aroda","structure_type":"Recharge Borewell","gwrpz_class":3,"nearest_stream_order":2,"nearest_stream_distance_m":4.516970739696126,"nearest_lineament_distance_m":568.9870928565525,"direct_lineament_intersection":false,"siting_alignment_spatial_setting":"Upper-catchment recharge setting"},"geometry":{"type":"Point","coordinates":[72.893504,23.760241]}},{"type":"Feature","properties":{"structure_id":10,"district":"Sabarkantha","block":"Idar","village":"Singha-1","structure_type":"Recharge Borewell","gwrpz_class":2,"nearest_stream_order":1,"nearest_stream_distance_m":888.9868096366322,"nearest_lineament_distance_m":3715.66178591773,"direct_lineament_intersection":false,"siting_alignment_spatial_setting":"Upper-catchment recharge setting"},"geometry":{"type":"Point","coordinates":[72.836853,23.75203]}},{"type":"Feature","properties":{"structure_id":11,"district":"Sabarkantha","block":"Idar","village":"Kabso","structure_type":"Recharge Borewell","gwrpz_class":2,"nearest_stream_order":2,"nearest_stream_distance_m":41.908758734445314,"nearest_lineament_distance_m":180.62226296975336,"direct_lineament_intersection":false,"siting_alignment_spatial_setting":"Upper-catchment recharge setting"},"geometry":{"type":"Point","coordinates":[72.837562,23.788229]}},{"type":"Feature","properties":{"structure_id":12,"district":"Sabarkantha","block":"Idar","village":"Davad-1","structure_type":"Recharge Borewell","gwrpz_class":3,"nearest_stream_order":2,"nearest_stream_distance_m":268.7797168984411,"nearest_lineament_distance_m":2183.3820967874867,"direct_lineament_intersection":false,"siting_alignment_spatial_setting":"Upper-catchment recharge setting"},"geometry":{"type":"Point","coordinates":[72.860657,23.723958]}},{"type":"Feature","properties":{"structure_id":13,"district":"Sabarkantha","block":"Idar","village":"Davad-2","structure_type":"Recharge Borewell","gwrpz_class":2,"nearest_stream_order":1,"nearest_stream_distance_m":14.389023218262636,"nearest_lineament_distance_m":2772.3134453174366,"direct_lineament_intersection":false,"siting_alignment_spatial_setting":"Upper-catchment recharge setting"},"geometry":{"type":"Point","coordinates":[72.865595,23.734825]}},{"type":"Feature","properties":{"structure_id":14,"district":"Sabarkantha","block":"Idar","village":"Madhva","structure_type":"Recharge Borewell","gwrpz_class":2,"nearest_stream_order":4,"nearest_stream_distance_m":6.147233804953755,"nearest_lineament_distance_m":2866.090329343148,"direct_lineament_intersection":false,"siting_alignment_spatial_setting":"Storage-oriented moderate-potential setting"},"geometry":{"type":"Point","coordinates":[72.816222,23.818497]}},{"type":"Feature","properties":{"structure_id":15,"district":"Sabarkantha","block":"Himmatnagar","village":"Umedgadh-2","structure_type":"Recharge Borewell","gwrpz_class":2,"nearest_stream_order":2,"nearest_stream_distance_m":8.41553883931669,"nearest_lineament_distance_m":1953.3317745224367,"direct_lineament_intersection":false,"siting_alignment_spatial_setting":"Upper-catchment recharge setting"},"geometry":{"type":"Point","coordinates":[72.924889,23.796953]}},{"type":"Feature","properties":{"structure_id":16,"district":"Sabarkantha","block":"Himmatnagar","village":"Munpur","structure_type":"Recharge Borewell","gwrpz_class":3,"nearest_stream_order":1,"nearest_stream_distance_m":707.5760663741421,"nearest_lineament_distance_m":2980.943996154171,"direct_lineament_intersection":false,"siting_alignment_spatial_setting":"Upper-catchment recharge setting"},"geometry":{"type":"Point","coordinates":[72.879291,23.675978]}},{"type":"Feature","properties":{"structure_id":17,"district":"Sabarkantha","block":"Himmatnagar","village":"Singha-2","structure_type":"Recharge Borewell","gwrpz_class":3,"nearest_stream_order":1,"nearest_stream_distance_m":25.13605662335679,"nearest_lineament_distance_m":4356.228214490451,"direct_lineament_intersection":false,"siting_alignment_spatial_setting":"Upper-catchment recharge setting"},"geometry":{"type":"Point","coordinates":[72.82012,23.71853]}},{"type":"Feature","properties":{"structure_id":18,"district":"Sabarkantha","block":"Idar","village":"Bhuvel","structure_type":"Recharge Borewell","gwrpz_class":2,"nearest_stream_order":1,"nearest_stream_distance_m":34.57036356515206,"nearest_lineament_distance_m":391.3969645059838,"direct_lineament_intersection":false,"siting_alignment_spatial_setting":"Upper-catchment recharge setting"},"geometry":{"type":"Point","coordinates":[72.97015,23.74864]}},{"type":"Feature","properties":{"structure_id":19,"district":"Sabarkantha","block":"Himmatnagar","village":"Eklara-1","structure_type":"Recharge Borewell","gwrpz_class":2,"nearest_stream_order":1,"nearest_stream_distance_m":10.413102530071226,"nearest_lineament_distance_m":4897.8942869366265,"direct_lineament_intersection":false,"siting_alignment_spatial_setting":"Upper-catchment recharge setting"},"geometry":{"type":"Point","coordinates":[72.811543,23.75217]}},{"type":"Feature","properties":{"structure_id":20,"district":"Sabarkantha","block":"Himmatnagar","village":"Eklara-2","structure_type":"Recharge Borewell","gwrpz_class":2,"nearest_stream_order":1,"nearest_stream_distance_m":45.88819409702863,"nearest_lineament_distance_m":4770.189999791339,"direct_lineament_intersection":false,"siting_alignment_spatial_setting":"Upper-catchment recharge setting"},"geometry":{"type":"Point","coordinates":[72.81477,23.751168]}},{"type":"Feature","properties":{"structure_id":21,"district":"Sabarkantha","block":"Idar","village":"Virpur -1","structure_type":"Recharge Borewell","gwrpz_class":2,"nearest_stream_order":4,"nearest_stream_distance_m":7.145851465772728,"nearest_lineament_distance_m":27.406489258188042,"direct_lineament_intersection":false,"siting_alignment_spatial_setting":"Storage-oriented moderate-potential setting"},"geometry":{"type":"Point","coordinates":[72.94469,23.787992]}},{"type":"Feature","properties":{"structure_id":22,"district":"Sabarkantha","block":"Idar","village":"Lalpur (davad)","structure_type":"Recharge Borewell","gwrpz_class":3,"nearest_stream_order":1,"nearest_stream_distance_m":673.3525318178463,"nearest_lineament_distance_m":1558.777367238771,"direct_lineament_intersection":false,"siting_alignment_spatial_setting":"Upper-catchment recharge setting"},"geometry":{"type":"Point","coordinates":[72.913965,23.739887]}},{"type":"Feature","properties":{"structure_id":23,"district":"Sabarkantha","block":"Himmatnagar","village":"Lolasan-1","structure_type":"Recharge Borewell","gwrpz_class":3,"nearest_stream_order":3,"nearest_stream_distance_m":14.77482675057042,"nearest_lineament_distance_m":602.3282491166394,"direct_lineament_intersection":false,"siting_alignment_spatial_setting":"Higher-order high-potential setting - review"},"geometry":{"type":"Point","coordinates":[72.962503,23.689332]}},{"type":"Feature","properties":{"structure_id":24,"district":"Sabarkantha","block":"Himmatnagar","village":"Lolasan-2","structure_type":"Recharge Borewell","gwrpz_class":3,"nearest_stream_order":2,"nearest_stream_distance_m":95.08475583476985,"nearest_lineament_distance_m":47.702682788881035,"direct_lineament_intersection":false,"siting_alignment_spatial_setting":"Upper-catchment recharge setting"},"geometry":{"type":"Point","coordinates":[72.956945,23.685985]}},{"type":"Feature","properties":{"structure_id":25,"district":"Sabarkantha","block":"Idar","village":"Virpur -2","structure_type":"Recharge Borewell","gwrpz_class":3,"nearest_stream_order":3,"nearest_stream_distance_m":1.3464260057694692,"nearest_lineament_distance_m":552.7297604757431,"direct_lineament_intersection":false,"siting_alignment_spatial_setting":"Higher-order high-potential setting - review"},"geometry":{"type":"Point","coordinates":[72.938418,23.78474]}},{"type":"Feature","properties":{"structure_id":26,"district":"Sabarkantha","block":"Idar","village":"Ruderdi-2","structure_type":"Recharge Borewell","gwrpz_class":2,"nearest_stream_order":1,"nearest_stream_distance_m":55.59591206112348,"nearest_lineament_distance_m":154.21635696976037,"direct_lineament_intersection":false,"siting_alignment_spatial_setting":"Upper-catchment recharge setting"},"geometry":{"type":"Point","coordinates":[72.9599,23.7642]}},{"type":"Feature","properties":{"structure_id":27,"district":"Sabarkantha","block":"Idar","village":"Bolundra (SO)-2","structure_type":"Recharge Borewell","gwrpz_class":3,"nearest_stream_order":3,"nearest_stream_distance_m":14.853307041883877,"nearest_lineament_distance_m":134.50390894557307,"direct_lineament_intersection":false,"siting_alignment_spatial_setting":"Higher-order high-potential setting - review"},"geometry":{"type":"Point","coordinates":[72.905295,23.776889]}},{"type":"Feature","properties":{"structure_id":28,"district":"Sabarkantha","block":"Idar","village":"Oda","structure_type":"Recharge Borewell","gwrpz_class":3,"nearest_stream_order":4,"nearest_stream_distance_m":364.15018483110435,"nearest_lineament_distance_m":1380.9918791066182,"direct_lineament_intersection":false,"siting_alignment_spatial_setting":"Higher-order high-potential setting - review"},"geometry":{"type":"Point","coordinates":[72.86799,23.83707]}},{"type":"Feature","properties":{"structure_id":29,"district":"Sabarkantha","block":"Idar","village":"Haripura","structure_type":"Recharge Borewell","gwrpz_class":3,"nearest_stream_order":1,"nearest_stream_distance_m":684.7574170075857,"nearest_lineament_distance_m":1981.3730348639153,"direct_lineament_intersection":false,"siting_alignment_spatial_setting":"Upper-catchment recharge setting"},"geometry":{"type":"Point","coordinates":[72.879602,23.762708]}},{"type":"Feature","properties":{"structure_id":30,"district":"Sabarkantha","block":"Idar","village":"Haripura","structure_type":"Defunct Recharge tubewell","gwrpz_class":3,"nearest_stream_order":1,"nearest_stream_distance_m":647.0613640249653,"nearest_lineament_distance_m":2079.6641307661753,"direct_lineament_intersection":false,"siting_alignment_spatial_setting":"Upper-catchment recharge setting"},"geometry":{"type":"Point","coordinates":[72.878358,23.762275]}},{"type":"Feature","properties":{"structure_id":31,"district":"Sabarkantha","block":null,"village":"Kadoli","structure_type":"RRWHS","gwrpz_class":3,"nearest_stream_order":1,"nearest_stream_distance_m":986.1631423081948,"nearest_lineament_distance_m":3064.7700162017695,"direct_lineament_intersection":false,"siting_alignment_spatial_setting":"Upper-catchment recharge setting"},"geometry":{"type":"Point","coordinates":[72.849557,23.665512]}},{"type":"Feature","properties":{"structure_id":32,"district":"Sabarkantha","block":"Idar","village":"Eklara","structure_type":"RRWHS","gwrpz_class":2,"nearest_stream_order":1,"nearest_stream_distance_m":354.0847337497696,"nearest_lineament_distance_m":5177.546876798918,"direct_lineament_intersection":false,"siting_alignment_spatial_setting":"Upper-catchment recharge setting"},"geometry":{"type":"Point","coordinates":[72.81154,23.748841]}},{"type":"Feature","properties":{"structure_id":33,"district":"Sabarkantha","block":"Idar","village":"Oda","structure_type":"RRWHS","gwrpz_class":3,"nearest_stream_order":4,"nearest_stream_distance_m":364.15018483110435,"nearest_lineament_distance_m":1380.9918791066182,"direct_lineament_intersection":false,"siting_alignment_spatial_setting":"Higher-order high-potential setting - review"},"geometry":{"type":"Point","coordinates":[72.86799,23.83707]}},{"type":"Feature","properties":{"structure_id":34,"district":"Sabarkantha","block":"Idar","village":"Lei","structure_type":"RRWHS","gwrpz_class":3,"nearest_stream_order":4,"nearest_stream_distance_m":101.31620969104394,"nearest_lineament_distance_m":158.17935569145715,"direct_lineament_intersection":false,"siting_alignment_spatial_setting":"Higher-order high-potential setting - review"},"geometry":{"type":"Point","coordinates":[72.895119,23.853583]}},{"type":"Feature","properties":{"structure_id":35,"district":"Sabarkantha","block":"Idar","village":"Davad","structure_type":"RRWHS","gwrpz_class":2,"nearest_stream_order":3,"nearest_stream_distance_m":292.0092822985577,"nearest_lineament_distance_m":3126.1665417657414,"direct_lineament_intersection":false,"siting_alignment_spatial_setting":"Storage-oriented moderate-potential setting"},"geometry":{"type":"Point","coordinates":[72.850361,23.728225]}},{"type":"Feature","properties":{"structure_id":36,"district":"Sabarkantha","block":"Idar","village":"Kesarpura","structure_type":"RRWHS","gwrpz_class":3,"nearest_stream_order":1,"nearest_stream_distance_m":583.6016428900742,"nearest_lineament_distance_m":1628.004111659109,"direct_lineament_intersection":false,"siting_alignment_spatial_setting":"Upper-catchment recharge setting"},"geometry":{"type":"Point","coordinates":[72.887972,23.774202]}},{"type":"Feature","properties":{"structure_id":37,"district":"Sabarkantha","block":"Idar","village":"Sardarpura","structure_type":"Checkdam Desilting","gwrpz_class":2,"nearest_stream_order":4,"nearest_stream_distance_m":18.237045682292404,"nearest_lineament_distance_m":2975.476646110061,"direct_lineament_intersection":false,"siting_alignment_spatial_setting":"Storage-oriented moderate-potential setting"},"geometry":{"type":"Point","coordinates":[72.81147,23.827485]}},{"type":"Feature","properties":{"structure_id":38,"district":"Sabarkantha","block":"Idar","village":"Bolundra","structure_type":"Pond Deepening","gwrpz_class":3,"nearest_stream_order":2,"nearest_stream_distance_m":6.529557002881141,"nearest_lineament_distance_m":452.9048216508726,"direct_lineament_intersection":false,"siting_alignment_spatial_setting":"Upper-catchment recharge setting"},"geometry":{"type":"Point","coordinates":[72.906077,23.784696]}},{"type":"Feature","properties":{"structure_id":39,"district":"Sabarkantha","block":"Idar","village":"Bhuvel","structure_type":"Pond Deepening","gwrpz_class":2,"nearest_stream_order":1,"nearest_stream_distance_m":12.256535218275847,"nearest_lineament_distance_m":196.11760608041874,"direct_lineament_intersection":false,"siting_alignment_spatial_setting":"Upper-catchment recharge setting"},"geometry":{"type":"Point","coordinates":[72.979814,23.750945]}},{"type":"Feature","properties":{"structure_id":40,"district":"Sabarkantha","block":"Himmatnagar","village":"Munpur","structure_type":"Pond Deepening","gwrpz_class":3,"nearest_stream_order":1,"nearest_stream_distance_m":707.5760663741421,"nearest_lineament_distance_m":2980.943996154171,"direct_lineament_intersection":false,"siting_alignment_spatial_setting":"Upper-catchment recharge setting"},"geometry":{"type":"Point","coordinates":[72.879291,23.675978]}},{"type":"Feature","properties":{"structure_id":41,"district":"Sabarkantha","block":"Idar","village":"Budheli","structure_type":"Pond Deepening","gwrpz_class":3,"nearest_stream_order":1,"nearest_stream_distance_m":393.0397326675234,"nearest_lineament_distance_m":699.3992080873844,"direct_lineament_intersection":false,"siting_alignment_spatial_setting":"Upper-catchment recharge setting"},"geometry":{"type":"Point","coordinates":[72.902098,23.81189]}},{"type":"Feature","properties":{"structure_id":42,"district":"Sabarkantha","block":"Idar","village":"Eklara","structure_type":"Checkdam Desilting","gwrpz_class":3,"nearest_stream_order":2,"nearest_stream_distance_m":21.716252777725458,"nearest_lineament_distance_m":4408.072698165625,"direct_lineament_intersection":false,"siting_alignment_spatial_setting":"Upper-catchment recharge setting"},"geometry":{"type":"Point","coordinates":[72.804085,23.763527]}},{"type":"Feature","properties":{"structure_id":43,"district":"Sabarkantha","block":"Idar","village":"Virpura","structure_type":"Checkdam Desilting","gwrpz_class":3,"nearest_stream_order":3,"nearest_stream_distance_m":4.869454032166392,"nearest_lineament_distance_m":248.8503143963852,"direct_lineament_intersection":false,"siting_alignment_spatial_setting":"Higher-order high-potential setting - review"},"geometry":{"type":"Point","coordinates":[72.947619,23.79208]}},{"type":"Feature","properties":{"structure_id":44,"district":"Sabarkantha","block":"Idar","village":"Davad","structure_type":"New Checkdam","gwrpz_class":2,"nearest_stream_order":1,"nearest_stream_distance_m":5.9573265781223235,"nearest_lineament_distance_m":2179.668651691355,"direct_lineament_intersection":false,"siting_alignment_spatial_setting":"Upper-catchment recharge setting"},"geometry":{"type":"Point","coordinates":[72.851782,23.719059]}},{"type":"Feature","properties":{"structure_id":45,"district":"Sabarkantha","block":"Idar","village":"Masal","structure_type":"Recharge Borewell","gwrpz_class":2,"nearest_stream_order":1,"nearest_stream_distance_m":41.50843433074697,"nearest_lineament_distance_m":584.9355783137518,"direct_lineament_intersection":false,"siting_alignment_spatial_setting":"Upper-catchment recharge setting"},"geometry":{"type":"Point","coordinates":[72.92517,23.814081]}},{"type":"Feature","properties":{"structure_id":46,"district":"Sabarkantha","block":"Idar","village":"Aroda","structure_type":"Recharge Borewell","gwrpz_class":2,"nearest_stream_order":1,"nearest_stream_distance_m":8.760822626647087,"nearest_lineament_distance_m":850.1313520902282,"direct_lineament_intersection":false,"siting_alignment_spatial_setting":"Upper-catchment recharge setting"},"geometry":{"type":"Point","coordinates":[72.892641,23.764895]}},{"type":"Feature","properties":{"structure_id":47,"district":"Sabarkantha","block":"Himmatnagar","village":"Kadoli","structure_type":"Recharge Borewell","gwrpz_class":3,"nearest_stream_order":1,"nearest_stream_distance_m":971.8062859199653,"nearest_lineament_distance_m":2316.9548943955815,"direct_lineament_intersection":false,"siting_alignment_spatial_setting":"Upper-catchment recharge setting"},"geometry":{"type":"Point","coordinates":[72.856053,23.660809]}},{"type":"Feature","properties":{"structure_id":48,"district":"Sabarkantha","block":"Idar","village":"Samlapur","structure_type":"Recharge Borewell","gwrpz_class":3,"nearest_stream_order":1,"nearest_stream_distance_m":7.16040795428008,"nearest_lineament_distance_m":275.4419471536686,"direct_lineament_intersection":false,"siting_alignment_spatial_setting":"Upper-catchment recharge setting"},"geometry":{"type":"Point","coordinates":[72.891478,23.852778]}},{"type":"Feature","properties":{"structure_id":49,"district":"Sabarkantha","block":"Himmatnagar","village":"Sachodar","structure_type":"Recharge Borewell","gwrpz_class":3,"nearest_stream_order":1,"nearest_stream_distance_m":13.89088259883172,"nearest_lineament_distance_m":442.9103180981794,"direct_lineament_intersection":false,"siting_alignment_spatial_setting":"Upper-catchment recharge setting"},"geometry":{"type":"Point","coordinates":[72.908301,23.718597]}},{"type":"Feature","properties":{"structure_id":50,"district":"Sabarkantha","block":"Himmatnagar","village":"Jivapur","structure_type":"Recharge Borewell","gwrpz_class":2,"nearest_stream_order":2,"nearest_stream_distance_m":9.154045745505323,"nearest_lineament_distance_m":29.911668544236058,"direct_lineament_intersection":false,"siting_alignment_spatial_setting":"Upper-catchment recharge setting"},"geometry":{"type":"Point","coordinates":[72.862677,23.702446]}},{"type":"Feature","properties":{"structure_id":51,"district":"Sabarkantha","block":"Idar","village":"Sundarpur","structure_type":"Recharge Borewell","gwrpz_class":3,"nearest_stream_order":1,"nearest_stream_distance_m":11.430578231876979,"nearest_lineament_distance_m":1603.1805321641127,"direct_lineament_intersection":false,"siting_alignment_spatial_setting":"Upper-catchment recharge setting"},"geometry":{"type":"Point","coordinates":[72.81866,23.80551]}},{"type":"Feature","properties":{"structure_id":52,"district":"Sabarkantha","block":"Himmatnagar","village":"Prempur","structure_type":"Recharge Borewell","gwrpz_class":2,"nearest_stream_order":1,"nearest_stream_distance_m":29.35303096909748,"nearest_lineament_distance_m":68.7045976619472,"direct_lineament_intersection":false,"siting_alignment_spatial_setting":"Upper-catchment recharge setting"},"geometry":{"type":"Point","coordinates":[72.870663,23.705789]}},{"type":"Feature","properties":{"structure_id":53,"district":"Sabarkantha","block":"Himmatnagar","village":"Rangpur","structure_type":"Recharge Borewell","gwrpz_class":2,"nearest_stream_order":3,"nearest_stream_distance_m":115.43800101560034,"nearest_lineament_distance_m":140.68161672215678,"direct_lineament_intersection":false,"siting_alignment_spatial_setting":"Storage-oriented moderate-potential setting"},"geometry":{"type":"Point","coordinates":[72.857792,23.697997]}},{"type":"Feature","properties":{"structure_id":54,"district":"Sabarkantha","block":"Himmatnagar","village":"Pethapur","structure_type":"Recharge Borewell","gwrpz_class":3,"nearest_stream_order":1,"nearest_stream_distance_m":349.0216567271723,"nearest_lineament_distance_m":1579.8409868048795,"direct_lineament_intersection":false,"siting_alignment_spatial_setting":"Upper-catchment recharge setting"},"geometry":{"type":"Point","coordinates":[72.842688,23.703905]}},{"type":"Feature","properties":{"structure_id":55,"district":"Sabarkantha","block":"Idar","village":"Santol","structure_type":"Recharge Borewell","gwrpz_class":2,"nearest_stream_order":2,"nearest_stream_distance_m":7.627378612568891,"nearest_lineament_distance_m":2746.7485964991392,"direct_lineament_intersection":false,"siting_alignment_spatial_setting":"Upper-catchment recharge setting"},"geometry":{"type":"Point","coordinates":[72.860508,23.765536]}},{"type":"Feature","properties":{"structure_id":56,"district":"Sabarkantha","block":"Idar","village":"Chappi","structure_type":"Recharge Borewell","gwrpz_class":2,"nearest_stream_order":1,"nearest_stream_distance_m":52.96747971185247,"nearest_lineament_distance_m":1154.7923761126845,"direct_lineament_intersection":false,"siting_alignment_spatial_setting":"Upper-catchment recharge setting"},"geometry":{"type":"Point","coordinates":[72.848377,23.817153]}},{"type":"Feature","properties":{"structure_id":57,"district":"Sabarkantha","block":"Idar","village":"Kamboya","structure_type":"Recharge Borewell","gwrpz_class":2,"nearest_stream_order":1,"nearest_stream_distance_m":65.89264164141768,"nearest_lineament_distance_m":2817.792581048358,"direct_lineament_intersection":false,"siting_alignment_spatial_setting":"Upper-catchment recharge setting"},"geometry":{"type":"Point","coordinates":[72.870104,23.777247]}},{"type":"Feature","properties":{"structure_id":58,"district":"Sabarkantha","block":"Idar","village":"Manpura","structure_type":"Recharge Borewell","gwrpz_class":2,"nearest_stream_order":1,"nearest_stream_distance_m":885.6440261108534,"nearest_lineament_distance_m":1088.5010311519914,"direct_lineament_intersection":false,"siting_alignment_spatial_setting":"Upper-catchment recharge setting"},"geometry":{"type":"Point","coordinates":[72.854396,23.784038]}}]}